{
    "links": {
        "self": "http://www.neowsapp.com/rest/v1/neo/3515381?api_key=iIulBulltgU6a56xZRHN4H3l9WmuAYTsLGpBGhQ2"
    },
    "id": "3515381",
    "neo_reference_id": "3515381",
    "name": "(2010 GM23)",
    "designation": "2010 GM23",
    "nasa_jpl_url": "http://ssd.jpl.nasa.gov/sbdb.cgi?sstr=3515381",
    "absolute_magnitude_h": 24.7,
    "estimated_diameter": {
        "kilometers": {
            "estimated_diameter_min": 0.0305179233,
            "estimated_diameter_max": 0.0682401509
        },
        "meters": {
            "estimated_diameter_min": 30.5179232594,
            "estimated_diameter_max": 68.2401509401
        },
        "miles": {
            "estimated_diameter_min": 0.0189629525,
            "estimated_diameter_max": 0.0424024508
        },
        "feet": {
            "estimated_diameter_min": 100.1244233463,
            "estimated_diameter_max": 223.8850168104
        }
    },
    "is_potentially_hazardous_asteroid": false,
    "close_approach_data": [
        {
            "close_approach_date": "2004-03-29",
            "close_approach_date_full": "2004-Mar-29 04:18",
            "epoch_date_close_approach": 1080533880000,
            "relative_velocity": {
                "kilometers_per_second": "21.8369466293",
                "kilometers_per_hour": "78613.0078653126",
                "miles_per_hour": "48847.0659149772"
            },
            "miss_distance": {
                "astronomical": "0.2855273995",
                "lunar": "111.0701584055",
                "kilometers": "42714290.791839065",
                "miles": "26541429.555606497"
            },
            "orbiting_body": "Earth"
        },
        {
            "close_approach_date": "2007-04-05",
            "close_approach_date_full": "2007-Apr-05 19:23",
            "epoch_date_close_approach": 1175800980000,
            "relative_velocity": {
                "kilometers_per_second": "17.654556323",
                "kilometers_per_hour": "63556.4027628446",
                "miles_per_hour": "39491.4770389464"
            },
            "miss_distance": {
                "astronomical": "0.1441690083",
                "lunar": "56.0817442287",
                "kilometers": "21567376.561692321",
                "miles": "13401346.3667471898"
            },
            "orbiting_body": "Earth"
        },
        {
            "close_approach_date": "2010-04-13",
            "close_approach_date_full": "2010-Apr-13 02:26",
            "epoch_date_close_approach": 1271125560000,
            "relative_velocity": {
                "kilometers_per_second": "13.6800908283",
                "kilometers_per_hour": "49248.3269817346",
                "miles_per_hour": "30600.9951737339"
            },
            "miss_distance": {
                "astronomical": "0.0088256696",
                "lunar": "3.4331854744",
                "kilometers": "1320301.373483752",
                "miles": "820397.2311576976"
            },
            "orbiting_body": "Earth"
        },
        {
            "close_approach_date": "2010-04-13",
            "close_approach_date_full": "2010-Apr-13 08:33",
            "epoch_date_close_approach": 1271147580000,
            "relative_velocity": {
                "kilometers_per_second": "13.5710230239",
                "kilometers_per_hour": "48855.6828858636",
                "miles_per_hour": "30357.0214020523"
            },
            "miss_distance": {
                "astronomical": "0.0083224279",
                "lunar": "3.2374244531",
                "kilometers": "1245017.487068573",
                "miles": "773617.9933213874"
            },
            "orbiting_body": "Moon"
        },
        {
            "close_approach_date": "2013-04-14",
            "close_approach_date_full": "2013-Apr-14 03:11",
            "epoch_date_close_approach": 1365909060000,
            "relative_velocity": {
                "kilometers_per_second": "13.0622497244",
                "kilometers_per_hour": "47024.0990079365",
                "miles_per_hour": "29218.9464085703"
            },
            "miss_distance": {
                "astronomical": "0.0125291709",
                "lunar": "4.8738474801",
                "kilometers": "1874337.279505983",
                "miles": "1164659.1795212454"
            },
            "orbiting_body": "Earth"
        }
    ],
    "orbital_data": {
        "orbit_id": "10",
        "orbit_determination_date": "2017-04-06 08:57:53",
        "first_observation_date": "2010-04-08",
        "last_observation_date": "2010-04-13",
        "data_arc_in_days": 5,
        "observations_used": 54,
        "orbit_uncertainty": "8",
        "minimum_orbit_intersection": ".00213926",
        "jupiter_tisserand_invariant": "4.851",
        "epoch_osculation": "2455295.5",
        "eccentricity": ".4423065837280218",
        "semi_major_axis": "1.316759891793213",
        "inclination": "4.353843628104021",
        "ascending_node_longitude": "205.0255413659833",
        "orbital_period": "551.8973531177922",
        "perihelion_distance": ".7343483224640772",
        "perihelion_argument": "81.06846580297339",
        "aphelion_distance": "1.899171461122348",
        "perihelion_time": "2455354.831899799729",
        "mean_anomaly": "321.2980859443556",
        "mean_motion": ".6522952102710387",
        "equinox": "J2000",
        "orbit_class": {
            "orbit_class_type": "APO",
            "orbit_class_description": "Near-Earth asteroid orbits which cross the Earth’s orbit similar to that of 1862 Apollo",
            "orbit_class_range": "a (semi-major axis) > 1.0 AU; q (perihelion) < 1.017 AU"
        }
    },
    "is_sentry_object": false
}